[{"OBJECT_NAME":"STARLINK-3514","OBJECT_ID":"2022-016T","EPOCH":"2026-03-09T22:37:42.417984","MEAN_MOTION":15.08834741,"ECCENTRICITY":0.00012618,"INCLINATION":53.2187,"RA_OF_ASC_NODE":317.9838,"ARG_OF_PERICENTER":87.8677,"MEAN_ANOMALY":272.246,"EPHEMERIS_TYPE":0,"CLASSIFICATION_TYPE":"U","NORAD_CAT_ID":51731,"ELEMENT_SET_NO":999,"REV_AT_EPOCH":22360,"BSTAR":7.881138e-6,"MEAN_MOTION_DOT":-1.62e-6,"MEAN_MOTION_DDOT":0},{"OBJECT_NAME":"OBJECT BE","OBJECT_ID":"2018-099BE","EPOCH":"2026-03-09T15:10:24.322944","MEAN_MOTION":15.09972337,"ECCENTRICITY":0.0006427,"INCLINATION":97.4031,"RA_OF_ASC_NODE":111.7891,"ARG_OF_PERICENTER":340.4925,"MEAN_ANOMALY":19.6058,"EPHEMERIS_TYPE":0,"CLASSIFICATION_TYPE":"U","NORAD_CAT_ID":43810,"ELEMENT_SET_NO":999,"REV_AT_EPOCH":39698,"BSTAR":0.00027209,"MEAN_MOTION_DOT":4.358e-5,"MEAN_MOTION_DDOT":0}]
